CCSDS_OMM_VERS = 2.0
CREATION_DATE  = 
ORIGINATOR     = 

OBJECT_NAME    = KUIPER-00204
OBJECT_ID      = 2025-301N
CENTER_NAME    = EARTH
REF_FRAME      = TEME
TIME_SYSTEM    = UTC
MEAN_ELEMENT_THEORY = SGP/SGP4

EPOCH          = 2026-01-03T14:00:01.999872
MEAN_MOTION    = 15.35589981
ECCENTRICITY   = .00035567
INCLINATION    = 51.8754
RA_OF_ASC_NODE = 19.6397
ARG_OF_PERICENTER = 84.2320
MEAN_ANOMALY   = 37.7194

EPHEMERIS_TYPE = 0
CLASSIFICATION_TYPE = U
NORAD_CAT_ID   = 67145
ELEMENT_SET_NO = 999
REV_AT_EPOCH   = 383
BSTAR          = -.18850501E-1
MEAN_MOTION_DOT = -.618772E-2
MEAN_MOTION_DDOT = 0

CCSDS_OMM_VERS = 2.0
CREATION_DATE  = 
ORIGINATOR     = 

OBJECT_NAME    = KUIPER-00210
OBJECT_ID      = 2025-301P
CENTER_NAME    = EARTH
REF_FRAME      = TEME
TIME_SYSTEM    = UTC
MEAN_ELEMENT_THEORY = SGP/SGP4

EPOCH          = 2026-01-03T12:34:14.837376
MEAN_MOTION    = 15.34601398
ECCENTRICITY   = .00107149
INCLINATION    = 51.8603
RA_OF_ASC_NODE = 20.2384
ARG_OF_PERICENTER = 175.6195
MEAN_ANOMALY   = 184.4886

EPHEMERIS_TYPE = 0
CLASSIFICATION_TYPE = U
NORAD_CAT_ID   = 67146
ELEMENT_SET_NO = 999
REV_AT_EPOCH   = 388
BSTAR          = .12847439E-2
MEAN_MOTION_DOT = .43675E-3
MEAN_MOTION_DDOT = 0

CCSDS_OMM_VERS = 2.0
CREATION_DATE  = 
ORIGINATOR     = 

OBJECT_NAME    = KUIPER-00221
OBJECT_ID      = 2025-301Q
CENTER_NAME    = EARTH
REF_FRAME      = TEME
TIME_SYSTEM    = UTC
MEAN_ELEMENT_THEORY = SGP/SGP4

EPOCH          = 2026-01-03T12:07:53.935104
MEAN_MOTION    = 15.36084311
ECCENTRICITY   = .00051206
INCLINATION    = 51.8725
RA_OF_ASC_NODE = 20.1296
ARG_OF_PERICENTER = 136.8460
MEAN_ANOMALY   = 223.2928

EPHEMERIS_TYPE = 0
CLASSIFICATION_TYPE = U
NORAD_CAT_ID   = 67147
ELEMENT_SET_NO = 999
REV_AT_EPOCH   = 371
BSTAR          = .14260341E-2
MEAN_MOTION_DOT = .50869E-3
MEAN_MOTION_DDOT = 0

CCSDS_OMM_VERS = 2.0
CREATION_DATE  = 
ORIGINATOR     = 

OBJECT_NAME    = KUIPER-00232
OBJECT_ID      = 2025-301R
CENTER_NAME    = EARTH
REF_FRAME      = TEME
TIME_SYSTEM    = UTC
MEAN_ELEMENT_THEORY = SGP/SGP4

EPOCH          = 2026-01-03T13:24:42.882624
MEAN_MOTION    = 15.37011221
ECCENTRICITY   = .00025144
INCLINATION    = 51.8745
RA_OF_ASC_NODE = 19.7375
ARG_OF_PERICENTER = 66.1161
MEAN_ANOMALY   = 294.0089

EPHEMERIS_TYPE = 0
CLASSIFICATION_TYPE = U
NORAD_CAT_ID   = 67148
ELEMENT_SET_NO = 999
REV_AT_EPOCH   = 372
BSTAR          = .14937943E-2
MEAN_MOTION_DOT = .54944E-3
MEAN_MOTION_DDOT = 0

CCSDS_OMM_VERS = 2.0
CREATION_DATE  = 
ORIGINATOR     = 

OBJECT_NAME    = KUIPER-00241
OBJECT_ID      = 2025-301S
CENTER_NAME    = EARTH
REF_FRAME      = TEME
TIME_SYSTEM    = UTC
MEAN_ELEMENT_THEORY = SGP/SGP4

EPOCH          = 2026-01-03T13:32:37.950432
MEAN_MOTION    = 15.36554757
ECCENTRICITY   = .00027822
INCLINATION    = 51.8749
RA_OF_ASC_NODE = 19.7721
ARG_OF_PERICENTER = 113.3370
MEAN_ANOMALY   = 246.7910

EPHEMERIS_TYPE = 0
CLASSIFICATION_TYPE = U
NORAD_CAT_ID   = 67149
ELEMENT_SET_NO = 999
REV_AT_EPOCH   = 405
BSTAR          = .13308413E-2
MEAN_MOTION_DOT = .48146E-3
MEAN_MOTION_DDOT = 0

CCSDS_OMM_VERS = 2.0
CREATION_DATE  = 
ORIGINATOR     = 

OBJECT_NAME    = KUIPER-00245
OBJECT_ID      = 2025-301T
CENTER_NAME    = EARTH
REF_FRAME      = TEME
TIME_SYSTEM    = UTC
MEAN_ELEMENT_THEORY = SGP/SGP4

EPOCH          = 2026-01-03T13:43:12.872928
MEAN_MOTION    = 15.35360344
ECCENTRICITY   = .00057324
INCLINATION    = 51.8731
RA_OF_ASC_NODE = 19.8215
ARG_OF_PERICENTER = 141.8041
MEAN_ANOMALY   = 218.3352

EPHEMERIS_TYPE = 0
CLASSIFICATION_TYPE = U
NORAD_CAT_ID   = 67150
ELEMENT_SET_NO = 999
REV_AT_EPOCH   = 372
BSTAR          = .64234039E-3
MEAN_MOTION_DOT = .22091E-3
MEAN_MOTION_DDOT = 0

CCSDS_OMM_VERS = 2.0
CREATION_DATE  = 
ORIGINATOR     = 

OBJECT_NAME    = KUIPER-00246
OBJECT_ID      = 2025-301U
CENTER_NAME    = EARTH
REF_FRAME      = TEME
TIME_SYSTEM    = UTC
MEAN_ELEMENT_THEORY = SGP/SGP4

EPOCH          = 2026-01-03T13:37:38.803872
MEAN_MOTION    = 15.36299411
ECCENTRICITY   = .0004026
INCLINATION    = 51.8745
RA_OF_ASC_NODE = 19.7963
ARG_OF_PERICENTER = 135.0331
MEAN_ANOMALY   = 225.0982

EPHEMERIS_TYPE = 0
CLASSIFICATION_TYPE = U
NORAD_CAT_ID   = 67151
ELEMENT_SET_NO = 999
REV_AT_EPOCH   = 374
BSTAR          = .13447492E-2
MEAN_MOTION_DOT = .48259E-3
MEAN_MOTION_DDOT = 0

CCSDS_OMM_VERS = 2.0
CREATION_DATE  = 
ORIGINATOR     = 

OBJECT_NAME    = KUIPER-00247
OBJECT_ID      = 2025-301V
CENTER_NAME    = EARTH
REF_FRAME      = TEME
TIME_SYSTEM    = UTC
MEAN_ELEMENT_THEORY = SGP/SGP4

EPOCH          = 2026-01-03T06:22:06.647808
MEAN_MOTION    = 15.34416891
ECCENTRICITY   = .0011122
INCLINATION    = 51.8632
RA_OF_ASC_NODE = 21.5099
ARG_OF_PERICENTER = 177.7813
MEAN_ANOMALY   = 182.3223

EPHEMERIS_TYPE = 0
CLASSIFICATION_TYPE = U
NORAD_CAT_ID   = 67152
ELEMENT_SET_NO = 999
REV_AT_EPOCH   = 367
BSTAR          = .39555E-3
MEAN_MOTION_DOT = .13049E-3
MEAN_MOTION_DDOT = 0

CCSDS_OMM_VERS = 2.0
CREATION_DATE  = 
ORIGINATOR     = 

OBJECT_NAME    = KUIPER-00248
OBJECT_ID      = 2025-301W
CENTER_NAME    = EARTH
REF_FRAME      = TEME
TIME_SYSTEM    = UTC
MEAN_ELEMENT_THEORY = SGP/SGP4

EPOCH          = 2026-01-03T13:59:23.171712
MEAN_MOTION    = 15.35176928
ECCENTRICITY   = .0009084
INCLINATION    = 51.8680
RA_OF_ASC_NODE = 19.8937
ARG_OF_PERICENTER = 165.6806
MEAN_ANOMALY   = 194.4439

EPHEMERIS_TYPE = 0
CLASSIFICATION_TYPE = U
NORAD_CAT_ID   = 67153
ELEMENT_SET_NO = 999
REV_AT_EPOCH   = 389
BSTAR          = .11757712E-2
MEAN_MOTION_DOT = .40646E-3
MEAN_MOTION_DDOT = 0

CCSDS_OMM_VERS = 2.0
CREATION_DATE  = 
ORIGINATOR     = 

OBJECT_NAME    = KUIPER-00249
OBJECT_ID      = 2025-301X
CENTER_NAME    = EARTH
REF_FRAME      = TEME
TIME_SYSTEM    = UTC
MEAN_ELEMENT_THEORY = SGP/SGP4

EPOCH          = 2026-01-03T13:56:25.602432
MEAN_MOTION    = 15.35311420
ECCENTRICITY   = .00086127
INCLINATION    = 51.8656
RA_OF_ASC_NODE = 19.8785
ARG_OF_PERICENTER = 163.9193
MEAN_ANOMALY   = 196.2067

EPHEMERIS_TYPE = 0
CLASSIFICATION_TYPE = U
NORAD_CAT_ID   = 67154
ELEMENT_SET_NO = 999
REV_AT_EPOCH   = 372
BSTAR          = .11672432E-2
MEAN_MOTION_DOT = .40518E-3
MEAN_MOTION_DDOT = 0

CCSDS_OMM_VERS = 2.0
CREATION_DATE  = 
ORIGINATOR     = 

OBJECT_NAME    = KUIPER-00250
OBJECT_ID      = 2025-301Y
CENTER_NAME    = EARTH
REF_FRAME      = TEME
TIME_SYSTEM    = UTC
MEAN_ELEMENT_THEORY = SGP/SGP4

EPOCH          = 2026-01-03T13:47:40.541856
MEAN_MOTION    = 15.35856675
ECCENTRICITY   = .00065587
INCLINATION    = 51.8720
RA_OF_ASC_NODE = 19.8430
ARG_OF_PERICENTER = 151.2442
MEAN_ANOMALY   = 208.8906

EPHEMERIS_TYPE = 0
CLASSIFICATION_TYPE = U
NORAD_CAT_ID   = 67155
ELEMENT_SET_NO = 999
REV_AT_EPOCH   = 375
BSTAR          = .11433662E-2
MEAN_MOTION_DOT = .40365E-3
MEAN_MOTION_DDOT = 0

CCSDS_OMM_VERS = 2.0
CREATION_DATE  = 
ORIGINATOR     = 

OBJECT_NAME    = KUIPER-00251
OBJECT_ID      = 2025-301Z
CENTER_NAME    = EARTH
REF_FRAME      = TEME
TIME_SYSTEM    = UTC
MEAN_ELEMENT_THEORY = SGP/SGP4

EPOCH          = 2026-01-03T13:57:50.034240
MEAN_MOTION    = 15.35119650
ECCENTRICITY   = .00092128
INCLINATION    = 51.8668
RA_OF_ASC_NODE = 19.8858
ARG_OF_PERICENTER = 161.5138
MEAN_ANOMALY   = 198.6184

EPHEMERIS_TYPE = 0
CLASSIFICATION_TYPE = U
NORAD_CAT_ID   = 67156
ELEMENT_SET_NO = 999
REV_AT_EPOCH   = 391
BSTAR          = -.10316976E-2
MEAN_MOTION_DOT = -.35969E-3
MEAN_MOTION_DDOT = 0

