KUIPER-00204            
1 67145U 25301N   26003.58335648 -.00618772  00000+0 -18851-1 0  9993
2 67145  51.8754  19.6397 0003556  84.2320  37.7194 15.35589981  3837
KUIPER-00210            
1 67146U 25301P   26003.52378284  .00043675  00000+0  12847-2 0  9993
2 67146  51.8603  20.2384 0010714 175.6195 184.4886 15.34601398  3883
KUIPER-00221            
1 67147U 25301Q   26003.50548536  .00050869  00000+0  14260-2 0  9995
2 67147  51.8725  20.1296 0005120 136.8460 223.2928 15.36084311  3712
KUIPER-00232            
1 67148U 25301R   26003.55882966  .00054944  00000+0  14938-2 0  9999
2 67148  51.8745  19.7375 0002514  66.1161 294.0089 15.37011221  3720
KUIPER-00241            
1 67149U 25301S   26003.56432813  .00048146  00000+0  13308-2 0  9990
2 67149  51.8749  19.7721 0002782 113.3370 246.7910 15.36554757  4053
KUIPER-00245            
1 67150U 25301T   26003.57167677  .00022091  00000+0  64234-3 0  9992
2 67150  51.8731  19.8215 0005732 141.8041 218.3352 15.35360344  3728
KUIPER-00246            
1 67151U 25301U   26003.56781023  .00048259  00000+0  13447-2 0  9992
2 67151  51.8745  19.7963 0004026 135.0331 225.0982 15.36299411  3748
KUIPER-00247            
1 67152U 25301V   26003.26535472  .00013049  00000+0  39555-3 0  9993
2 67152  51.8632  21.5099 0011122 177.7813 182.3223 15.34416891  3674
KUIPER-00248            
1 67153U 25301W   26003.58290708  .00040646  00000+0  11758-2 0  9996
2 67153  51.8680  19.8937 0009084 165.6806 194.4439 15.35176928  3893
KUIPER-00249            
1 67154U 25301X   26003.58085188  .00040518  00000+0  11672-2 0  9994
2 67154  51.8656  19.8785 0008612 163.9193 196.2067 15.35311420  3721
KUIPER-00250            
1 67155U 25301Y   26003.57477479  .00040365  00000+0  11434-2 0  9998
2 67155  51.8720  19.8430 0006558 151.2442 208.8906 15.35856675  3756
KUIPER-00251            
1 67156U 25301Z   26003.58182910 -.00035969  00000+0 -10317-2 0  9998
2 67156  51.8668  19.8858 0009212 161.5138 198.6184 15.35119650  3915
